[{"OBJECT_NAME":"STARLINK-4542","OBJECT_ID":"2022-097AZ","EPOCH":"2026-03-09T19:15:38.357856","MEAN_MOTION":15.08841284,"ECCENTRICITY":0.00011218,"INCLINATION":53.2163,"RA_OF_ASC_NODE":103.4146,"ARG_OF_PERICENTER":89.4077,"MEAN_ANOMALY":270.7043,"EPHEMERIS_TYPE":0,"CLASSIFICATION_TYPE":"U","NORAD_CAT_ID":53435,"ELEMENT_SET_NO":999,"REV_AT_EPOCH":19878,"BSTAR":-5.621592e-6,"MEAN_MOTION_DOT":-3.77e-6,"MEAN_MOTION_DDOT":0},{"OBJECT_NAME":"YAM-8","OBJECT_ID":"2025-052AW","EPOCH":"2026-03-09T17:32:32.161056","MEAN_MOTION":15.10898939,"ECCENTRICITY":0.00023693,"INCLINATION":97.7023,"RA_OF_ASC_NODE":329.5345,"ARG_OF_PERICENTER":152.6796,"MEAN_ANOMALY":207.4558,"EPHEMERIS_TYPE":0,"CLASSIFICATION_TYPE":"U","NORAD_CAT_ID":63254,"ELEMENT_SET_NO":999,"REV_AT_EPOCH":5424,"BSTAR":0.00047267461,"MEAN_MOTION_DOT":7.81e-5,"MEAN_MOTION_DDOT":0}]
